{
  "type": "FeatureCollection",
  "name": "Mazouna municipal reference - research candidate",
  "attribution": "© OpenStreetMap contributors",
  "license": "ODbL-1.0",
  "licenseURL": "https://opendatacommons.org/licenses/odbl/1-0/",
  "sourceURL": "https://api.openstreetmap.org/api/0.6/relation/6559405/full.json",
  "features": [
    {
      "type": "Feature",
      "id": "DZ-MAZOUNA-OSM-REFERENCE",
      "properties": {
        "name": "Mazouna",
        "refONS": "4822",
        "sourceURL": "https://www.openstreetmap.org/relation/6559405",
        "sourceSHA256": "eca05b45d14aed93d05399d051ddf455c182f0d4195fa8a437e9f2b9ba27a5f8",
        "attribution": "© OpenStreetMap contributors",
        "license": "ODbL-1.0",
        "licenseURL": "https://opendatacommons.org/licenses/odbl/1-0/",
        "attributionURL": "https://www.openstreetmap.org/copyright",
        "referenceOnly": true,
        "approximate": true,
        "runtimeImportAllowed": false,
        "scopeNote": "Municipal reference, not an exact linguistic boundary."
      },
      "geometry": {
        "type": "Polygon",
        "coordinates": [
          [
            [
              0.918646,
              36.152445
            ],
            [
              0.9183609,
              36.1522774
            ],
            [
              0.9176629,
              36.1526259
            ],
            [
              0.9169407,
              36.1530279
            ],
            [
              0.9162757,
              36.1529621
            ],
            [
              0.9158896,
              36.1528472
            ],
            [
              0.9158656,
              36.15291
            ],
            [
              0.9157844,
              36.1526202
            ],
            [
              0.9154905,
              36.1523896
            ],
            [
              0.9151472,
              36.1523386
            ],
            [
              0.9147889,
              36.1524496
            ],
            [
              0.9146525,
              36.1525644
            ],
            [
              0.914492,
              36.1527419
            ],
            [
              0.9142365,
              36.1527375
            ],
            [
              0.9138935,
              36.1526774
            ],
            [
              0.9137154,
              36.1526834
            ],
            [
              0.9135824,
              36.1526811
            ],
            [
              0.9134362,
              36.1527414
            ],
            [
              0.9132221,
              36.1528548
            ],
            [
              0.9130605,
              36.1530774
            ],
            [
              0.9127256,
              36.1531349
            ],
            [
              0.9122395,
              36.1530272
            ],
            [
              0.9117708,
              36.1526763
            ],
            [
              0.9107808,
              36.1518749
            ],
            [
              0.9094051,
              36.1513642
            ],
            [
              0.9076128,
              36.1502153
            ],
            [
              0.9063046,
              36.1488404
            ],
            [
              0.9046209,
              36.1482069
            ],
            [
              0.903555,
              36.1477556
            ],
            [
              0.9024545,
              36.1473488
            ],
            [
              0.901047,
              36.1467834
            ],
            [
              0.900507,
              36.1462061
            ],
            [
              0.9001566,
              36.1451723
            ],
            [
              0.8991232,
              36.1439105
            ],
            [
              0.8965661,
              36.1427118
            ],
            [
              0.8944375,
              36.1416828
            ],
            [
              0.8932631,
              36.1403012
            ],
            [
              0.8921119,
              36.1401367
            ],
            [
              0.8913352,
              36.1409344
            ],
            [
              0.8903166,
              36.1420251
            ],
            [
              0.8893598,
              36.1424859
            ],
            [
              0.8889515,
              36.141965
            ],
            [
              0.8883556,
              36.1413955
            ],
            [
              0.8879767,
              36.1418486
            ],
            [
              0.887424,
              36.1417398
            ],
            [
              0.8871935,
              36.1412217
            ],
            [
              0.8864369,
              36.1404243
            ],
            [
              0.8855357,
              36.1404714
            ],
            [
              0.8846439,
              36.1409876
            ],
            [
              0.8833589,
              36.140424
            ],
            [
              0.8820358,
              36.1392109
            ],
            [
              0.8795415,
              36.137328
            ],
            [
              0.8777874,
              36.1368643
            ],
            [
              0.8766626,
              36.1357175
            ],
            [
              0.8731557,
              36.1334922
            ],
            [
              0.8718363,
              36.132973
            ],
            [
              0.8687748,
              36.1311428
            ],
            [
              0.8631742,
              36.1274739
            ],
            [
              0.8566137,
              36.1231744
            ],
            [
              0.8530334,
              36.1204242
            ],
            [
              0.8525621,
              36.1205961
            ],
            [
              0.8516404,
              36.120994
            ],
            [
              0.8505059,
              36.1214517
            ],
            [
              0.8499074,
              36.1218013
            ],
            [
              0.8495471,
              36.1215695
            ],
            [
              0.8493298,
              36.1213944
            ],
            [
              0.8492741,
              36.1214023
            ],
            [
              0.8492708,
              36.1211138
            ],
            [
              0.8492181,
              36.1210048
            ],
            [
              0.8491025,
              36.1207683
            ],
            [
              0.8488689,
              36.1199619
            ],
            [
              0.8483923,
              36.1191061
            ],
            [
              0.847895,
              36.1173846
            ],
            [
              0.8479818,
              36.1162414
            ],
            [
              0.8491606,
              36.1157849
            ],
            [
              0.8503204,
              36.1152109
            ],
            [
              0.8517199,
              36.1144067
            ],
            [
              0.853222,
              36.1130907
            ],
            [
              0.8541163,
              36.1116553
            ],
            [
              0.8550579,
              36.1101129
            ],
            [
              0.856222,
              36.1081599
            ],
            [
              0.8577397,
              36.1070782
            ],
            [
              0.8602403,
              36.1066182
            ],
            [
              0.8632602,
              36.1070778
            ],
            [
              0.8645594,
              36.1066773
            ],
            [
              0.8643194,
              36.1056996
            ],
            [
              0.8633062,
              36.1045548
            ],
            [
              0.8621948,
              36.1033542
            ],
            [
              0.8621549,
              36.1027766
            ],
            [
              0.8626275,
              36.1025508
            ],
            [
              0.8644128,
              36.1026637
            ],
            [
              0.8667358,
              36.1030114
            ],
            [
              0.8707617,
              36.1036418
            ],
            [
              0.8724811,
              36.1028973
            ],
            [
              0.8717268,
              36.1020366
            ],
            [
              0.869908,
              36.1011119
            ],
            [
              0.8671968,
              36.0995134
            ],
            [
              0.866079,
              36.098538
            ],
            [
              0.8665936,
              36.0967625
            ],
            [
              0.8677629,
              36.0966482
            ],
            [
              0.8689764,
              36.0961289
            ],
            [
              0.8697412,
              36.0961876
            ],
            [
              0.8700381,
              36.0967066
            ],
            [
              0.8704939,
              36.0971022
            ],
            [
              0.8714393,
              36.0970471
            ],
            [
              0.8729395,
              36.0961904
            ],
            [
              0.8729024,
              36.095099
            ],
            [
              0.8721465,
              36.0943015
            ],
            [
              0.8710017,
              36.0931003
            ],
            [
              0.8706567,
              36.0918953
            ],
            [
              0.8710845,
              36.091263
            ],
            [
              0.8721034,
              36.0917769
            ],
            [
              0.873486,
              36.0928109
            ],
            [
              0.8748255,
              36.0933846
            ],
            [
              0.8757565,
              36.0930404
            ],
            [
              0.8752974,
              36.0923563
            ],
            [
              0.8742927,
              36.0917257
            ],
            [
              0.8731526,
              36.0903443
            ],
            [
              0.872936,
              36.0893129
            ],
            [
              0.8737453,
              36.089778
            ],
            [
              0.8745931,
              36.0904601
            ],
            [
              0.8750754,
              36.0902883
            ],
            [
              0.8748623,
              36.0895454
            ],
            [
              0.8742206,
              36.0886236
            ],
            [
              0.8741042,
              36.087594
            ],
            [
              0.8747691,
              36.0863979
            ],
            [
              0.8759439,
              36.085247
            ],
            [
              0.877271,
              36.0846215
            ],
            [
              0.8773499,
              36.0837577
            ],
            [
              0.8773255,
              36.0830091
            ],
            [
              0.8787276,
              36.0828987
            ],
            [
              0.8800302,
              36.0831832
            ],
            [
              0.8817259,
              36.0828978
            ],
            [
              0.8841547,
              36.0830126
            ],
            [
              0.8864613,
              36.0831256
            ],
            [
              0.8871313,
              36.082155
            ],
            [
              0.8867078,
              36.080552
            ],
            [
              0.8871158,
              36.0789998
            ],
            [
              0.8861904,
              36.0783163
            ],
            [
              0.8858361,
              36.0778595
            ],
            [
              0.8868144,
              36.0773991
            ],
            [
              0.8878016,
              36.0761906
            ],
            [
              0.888026,
              36.0740223
            ],
            [
              0.8872104,
              36.0717275
            ],
            [
              0.8862938,
              36.0702963
            ],
            [
              0.8861149,
              36.0686885
            ],
            [
              0.8862339,
              36.0671403
            ],
            [
              0.8856917,
              36.0658239
            ],
            [
              0.8842991,
              36.0639333
            ],
            [
              0.8832256,
              36.0625623
            ],
            [
              0.8823398,
              36.0612398
            ],
            [
              0.8822023,
              36.0601557
            ],
            [
              0.8827997,
              36.0594092
            ],
            [
              0.8832134,
              36.0592903
            ],
            [
              0.8835684,
              36.0588909
            ],
            [
              0.8840641,
              36.0582057
            ],
            [
              0.8845072,
              36.0574022
            ],
            [
              0.885037,
              36.0575196
            ],
            [
              0.885274,
              36.0582089
            ],
            [
              0.8853969,
              36.0590043
            ],
            [
              0.8858259,
              36.0599763
            ],
            [
              0.8859789,
              36.0608985
            ],
            [
              0.8867716,
              36.0619849
            ],
            [
              0.8877494,
              36.063192
            ],
            [
              0.8890395,
              36.0639359
            ],
            [
              0.8913398,
              36.0646793
            ],
            [
              0.894088,
              36.06571
            ],
            [
              0.895887,
              36.0661113
            ],
            [
              0.8974762,
              36.0664546
            ],
            [
              0.8975241,
              36.0667439
            ],
            [
              0.8973331,
              36.0672544
            ],
            [
              0.8970006,
              36.0680599
            ],
            [
              0.8968352,
              36.068859
            ],
            [
              0.8967793,
              36.07012
            ],
            [
              0.8974485,
              36.0700058
            ],
            [
              0.8980878,
              36.0701791
            ],
            [
              0.898447,
              36.0708705
            ],
            [
              0.899031,
              36.0710338
            ],
            [
              0.8999113,
              36.0713288
            ],
            [
              0.9004912,
              36.072069
            ],
            [
              0.9012512,
              36.0722985
            ],
            [
              0.9022256,
              36.0728203
            ],
            [
              0.9028609,
              36.0735617
            ],
            [
              0.9037261,
              36.0740184
            ],
            [
              0.9037053,
              36.075217
            ],
            [
              0.903379,
              36.075797
            ],
            [
              0.9027308,
              36.0763716
            ],
            [
              0.9030882,
              36.0767113
            ],
            [
              0.9041678,
              36.0774514
            ],
            [
              0.9056076,
              36.078432
            ],
            [
              0.9046813,
              36.0786052
            ],
            [
              0.9043932,
              36.0789968
            ],
            [
              0.9046129,
              36.0795143
            ],
            [
              0.9045147,
              36.0798642
            ],
            [
              0.9039992,
              36.0800353
            ],
            [
              0.904338,
              36.0806631
            ],
            [
              0.9048955,
              36.0814122
            ],
            [
              0.9057961,
              36.0822118
            ],
            [
              0.9057481,
              36.0831845
            ],
            [
              0.9056583,
              36.0840484
            ],
            [
              0.9058632,
              36.084701
            ],
            [
              0.9058942,
              36.0847915
            ],
            [
              0.90624,
              36.085256
            ],
            [
              0.905815,
              36.085599
            ],
            [
              0.905265,
              36.086225
            ],
            [
              0.905385,
              36.086858
            ],
            [
              0.905992,
              36.08743
            ],
            [
              0.906428,
              36.088235
            ],
            [
              0.906548,
              36.088471
            ],
            [
              0.906691,
              36.088749
            ],
            [
              0.906955,
              36.089032
            ],
            [
              0.90747,
              36.088978
            ],
            [
              0.907869,
              36.088978
            ],
            [
              0.908296,
              36.088978
            ],
            [
              0.908433,
              36.090065
            ],
            [
              0.908674,
              36.091153
            ],
            [
              0.909659,
              36.092411
            ],
            [
              0.910798,
              36.093441
            ],
            [
              0.910842,
              36.093464
            ],
            [
              0.911441,
              36.093789
            ],
            [
              0.912232,
              36.094246
            ],
            [
              0.912742,
              36.094822
            ],
            [
              0.9132,
              36.095337
            ],
            [
              0.914747,
              36.095681
            ],
            [
              0.915302,
              36.095887
            ],
            [
              0.916627,
              36.096367
            ],
            [
              0.916977,
              36.096711
            ],
            [
              0.917687,
              36.097569
            ],
            [
              0.91826,
              36.098202
            ],
            [
              0.91889,
              36.098832
            ],
            [
              0.91967,
              36.099862
            ],
            [
              0.92026,
              36.100552
            ],
            [
              0.921114,
              36.101296
            ],
            [
              0.92195,
              36.101696
            ],
            [
              0.922861,
              36.102211
            ],
            [
              0.923554,
              36.102902
            ],
            [
              0.923984,
              36.103817
            ],
            [
              0.924362,
              36.10479
            ],
            [
              0.924975,
              36.105481
            ],
            [
              0.925078,
              36.106339
            ],
            [
              0.925411,
              36.106739
            ],
            [
              0.926121,
              36.107426
            ],
            [
              0.926557,
              36.107712
            ],
            [
              0.927416,
              36.107598
            ],
            [
              0.928046,
              36.107941
            ],
            [
              0.929049,
              36.10817
            ],
            [
              0.929788,
              36.108746
            ],
            [
              0.930556,
              36.109662
            ],
            [
              0.930974,
              36.110634
            ],
            [
              0.930963,
              36.112069
            ],
            [
              0.931284,
              36.112927
            ],
            [
              0.931971,
              36.1139
            ],
            [
              0.932596,
              36.114758
            ],
            [
              0.933553,
              36.115616
            ],
            [
              0.934452,
              36.116421
            ],
            [
              0.934922,
              36.117051
            ],
            [
              0.935558,
              36.117909
            ],
            [
              0.936423,
              36.118599
            ],
            [
              0.937237,
              36.119229
            ],
            [
              0.93864,
              36.12003
            ],
            [
              0.939763,
              36.120663
            ],
            [
              0.940428,
              36.121121
            ],
            [
              0.941608,
              36.121864
            ],
            [
              0.942577,
              36.122321
            ],
            [
              0.94343,
              36.12255
            ],
            [
              0.944433,
              36.122951
            ],
            [
              0.944953,
              36.123248
            ],
            [
              0.945797,
              36.124034
            ],
            [
              0.945774,
              36.124214
            ],
            [
              0.945711,
              36.1245
            ],
            [
              0.945619,
              36.1249
            ],
            [
              0.945562,
              36.125301
            ],
            [
              0.945539,
              36.125701
            ],
            [
              0.945493,
              36.126102
            ],
            [
              0.945418,
              36.126388
            ],
            [
              0.945315,
              36.126735
            ],
            [
              0.945252,
              36.127193
            ],
            [
              0.945172,
              36.127479
            ],
            [
              0.94508,
              36.127536
            ],
            [
              0.944949,
              36.128166
            ],
            [
              0.944851,
              36.128509
            ],
            [
              0.944771,
              36.128799
            ],
            [
              0.944439,
              36.128967
            ],
            [
              0.944381,
              36.129257
            ],
            [
              0.94445,
              36.129485
            ],
            [
              0.944536,
              36.129714
            ],
            [
              0.944639,
              36.129939
            ],
            [
              0.944874,
              36.130287
            ],
            [
              0.945023,
              36.130573
            ],
            [
              0.94508,
              36.130859
            ],
            [
              0.945029,
              36.131145
            ],
            [
              0.944708,
              36.131431
            ],
            [
              0.944519,
              36.131832
            ],
            [
              0.944307,
              36.132236
            ],
            [
              0.944135,
              36.132636
            ],
            [
              0.943975,
              36.132923
            ],
            [
              0.943723,
              36.13338
            ],
            [
              0.943722,
              36.133838
            ],
            [
              0.943562,
              36.134296
            ],
            [
              0.943424,
              36.1347
            ],
            [
              0.943224,
              36.135097
            ],
            [
              0.942857,
              36.13544
            ],
            [
              0.94249,
              36.135787
            ],
            [
              0.942273,
              36.135959
            ],
            [
              0.942032,
              36.136073
            ],
            [
              0.941832,
              36.136077
            ],
            [
              0.941603,
              36.135669
            ],
            [
              0.941407,
              36.135391
            ],
            [
              0.941156,
              36.135044
            ],
            [
              0.940858,
              36.134639
            ],
            [
              0.940669,
              36.134296
            ],
            [
              0.940434,
              36.133781
            ],
            [
              0.940296,
              36.133495
            ],
            [
              0.940136,
              36.13309
            ],
            [
              0.939941,
              36.132518
            ],
            [
              0.939832,
              36.132179
            ],
            [
              0.93962,
              36.131832
            ],
            [
              0.939471,
              36.131488
            ],
            [
              0.939207,
              36.131149
            ],
            [
              0.93895,
              36.130802
            ],
            [
              0.938634,
              36.130458
            ],
            [
              0.938411,
              36.130115
            ],
            [
              0.93813,
              36.129768
            ],
            [
              0.937752,
              36.129424
            ],
            [
              0.937414,
              36.129142
            ],
            [
              0.937116,
              36.128856
            ],
            [
              0.936755,
              36.128627
            ],
            [
              0.936543,
              36.128452
            ],
            [
              0.936234,
              36.12828
            ],
            [
              0.935787,
              36.128112
            ],
            [
              0.935374,
              36.127994
            ],
            [
              0.934985,
              36.127994
            ],
            [
              0.934544,
              36.128051
            ],
            [
              0.934309,
              36.128509
            ],
            [
              0.934299,
              36.128814
            ],
            [
              0.934297,
              36.128852
            ],
            [
              0.934389,
              36.129196
            ],
            [
              0.934423,
              36.1296
            ],
            [
              0.934464,
              36.130287
            ],
            [
              0.934543,
              36.13063
            ],
            [
              0.934664,
              36.130916
            ],
            [
              0.934859,
              36.131259
            ],
            [
              0.935025,
              36.131603
            ],
            [
              0.935094,
              36.131893
            ],
            [
              0.935202,
              36.132118
            ],
            [
              0.935357,
              36.13235
            ],
            [
              0.935483,
              36.132518
            ],
            [
              0.935678,
              36.132804
            ],
            [
              0.935999,
              36.13338
            ],
            [
              0.93616,
              36.133838
            ],
            [
              0.936303,
              36.134181
            ],
            [
              0.936469,
              36.134582
            ],
            [
              0.936647,
              36.134986
            ],
            [
              0.936847,
              36.135383
            ],
            [
              0.936933,
              36.135673
            ],
            [
              0.937065,
              36.136188
            ],
            [
              0.937225,
              36.136531
            ],
            [
              0.937334,
              36.136871
            ],
            [
              0.937466,
              36.137275
            ],
            [
              0.937517,
              36.137447
            ],
            [
              0.93777,
              36.137905
            ],
            [
              0.937976,
              36.13842
            ],
            [
              0.93813,
              36.138938
            ],
            [
              0.938188,
              36.139224
            ],
            [
              0.938348,
              36.1394
            ],
            [
              0.938434,
              36.139915
            ],
            [
              0.93852,
              36.140197
            ],
            [
              0.938589,
              36.140483
            ],
            [
              0.938658,
              36.140716
            ],
            [
              0.938755,
              36.141055
            ],
            [
              0.938795,
              36.141231
            ],
            [
              0.938652,
              36.141403
            ],
            [
              0.938004,
              36.141975
            ],
            [
              0.937231,
              36.14249
            ],
            [
              0.936406,
              36.142948
            ],
            [
              0.935873,
              36.143237
            ],
            [
              0.935323,
              36.143691
            ],
            [
              0.934555,
              36.144267
            ],
            [
              0.933856,
              36.144725
            ],
            [
              0.933317,
              36.145069
            ],
            [
              0.932709,
              36.145526
            ],
            [
              0.9333,
              36.145926
            ],
            [
              0.934051,
              36.146441
            ],
            [
              0.934865,
              36.146845
            ],
            [
              0.935781,
              36.147532
            ],
            [
              0.936601,
              36.148047
            ],
            [
              0.937214,
              36.148447
            ],
            [
              0.937832,
              36.148909
            ],
            [
              0.938394,
              36.149306
            ],
            [
              0.93915,
              36.149763
            ],
            [
              0.939832,
              36.150282
            ],
            [
              0.940457,
              36.150511
            ],
            [
              0.940873,
              36.150702
            ],
            [
              0.940918,
              36.150721
            ],
            [
              0.941201,
              36.150854
            ],
            [
              0.941746,
              36.151259
            ],
            [
              0.942118,
              36.151541
            ],
            [
              0.942668,
              36.151312
            ],
            [
              0.942989,
              36.151198
            ],
            [
              0.943247,
              36.151022
            ],
            [
              0.943774,
              36.150797
            ],
            [
              0.944026,
              36.151083
            ],
            [
              0.944192,
              36.151427
            ],
            [
              0.944284,
              36.151774
            ],
            [
              0.944175,
              36.152003
            ],
            [
              0.943871,
              36.152228
            ],
            [
              0.943602,
              36.15246
            ],
            [
              0.943505,
              36.152747
            ],
            [
              0.943539,
              36.153086
            ],
            [
              0.943539,
              36.153433
            ],
            [
              0.943419,
              36.153776
            ],
            [
              0.943058,
              36.154005
            ],
            [
              0.942548,
              36.15452
            ],
            [
              0.942112,
              36.154867
            ],
            [
              0.941792,
              36.155039
            ],
            [
              0.941425,
              36.15515
            ],
            [
              0.940938,
              36.155382
            ],
            [
              0.940645,
              36.155497
            ],
            [
              0.940291,
              36.155493
            ],
            [
              0.939935,
              36.155436
            ],
            [
              0.939488,
              36.155325
            ],
            [
              0.939459,
              36.155318
            ],
            [
              0.939076,
              36.155207
            ],
            [
              0.938767,
              36.155096
            ],
            [
              0.938251,
              36.155039
            ],
            [
              0.937695,
              36.155096
            ],
            [
              0.937248,
              36.155096
            ],
            [
              0.936595,
              36.15515
            ],
            [
              0.936055,
              36.155211
            ],
            [
              0.935637,
              36.155325
            ],
            [
              0.935224,
              36.155493
            ],
            [
              0.934998,
              36.155588
            ],
            [
              0.934812,
              36.155665
            ],
            [
              0.934491,
              36.155894
            ],
            [
              0.934147,
              36.15618
            ],
            [
              0.933689,
              36.15647
            ],
            [
              0.93319,
              36.156756
            ],
            [
              0.932727,
              36.157156
            ],
            [
              0.932371,
              36.157328
            ],
            [
              0.931787,
              36.157904
            ],
            [
              0.931569,
              36.158015
            ],
            [
              0.93126,
              36.157957
            ],
            [
              0.930864,
              36.157729
            ],
            [
              0.930549,
              36.157557
            ],
            [
              0.930201,
              36.157393
            ],
            [
              0.929764,
              36.157271
            ],
            [
              0.929386,
              36.157214
            ],
            [
              0.929088,
              36.157156
            ],
            [
              0.928452,
              36.157156
            ],
            [
              0.927928,
              36.157156
            ],
            [
              0.927862,
              36.15716
            ],
            [
              0.92734,
              36.157099
            ],
            [
              0.927122,
              36.157019
            ],
            [
              0.927037,
              36.156985
            ],
            [
              0.926768,
              36.156641
            ],
            [
              0.926533,
              36.156298
            ],
            [
              0.926338,
              36.156069
            ],
            [
              0.926086,
              36.155783
            ],
            [
              0.925782,
              36.155436
            ],
            [
              0.925547,
              36.155268
            ],
            [
              0.925232,
              36.155093
            ],
            [
              0.924694,
              36.154867
            ],
            [
              0.924344,
              36.154692
            ],
            [
              0.924092,
              36.154578
            ],
            [
              0.923817,
              36.154406
            ],
            [
              0.923565,
              36.154234
            ],
            [
              0.923227,
              36.15412
            ],
            [
              0.922934,
              36.153834
            ],
            [
              0.922568,
              36.15349
            ],
            [
              0.922436,
              36.153319
            ],
            [
              0.922224,
              36.153033
            ],
            [
              0.922052,
              36.152857
            ],
            [
              0.921783,
              36.152571
            ],
            [
              0.921685,
              36.15246
            ],
            [
              0.921531,
              36.152342
            ],
            [
              0.92125,
              36.152289
            ],
            [
              0.920992,
              36.152232
            ],
            [
              0.920729,
              36.152289
            ],
            [
              0.920373,
              36.152342
            ],
            [
              0.92003,
              36.152342
            ],
            [
              0.919737,
              36.152399
            ],
            [
              0.919491,
              36.152228
            ],
            [
              0.919136,
              36.152342
            ],
            [
              0.918878,
              36.152342
            ],
            [
              0.918646,
              36.152445
            ]
          ]
        ]
      }
    }
  ]
}
