{
  "type": "FeatureCollection",
  "name": "Tlemcen municipal reference - research candidate",
  "attribution": "© OpenStreetMap contributors",
  "license": "ODbL-1.0",
  "licenseURL": "https://opendatacommons.org/licenses/odbl/1-0/",
  "sourceURL": "https://api.openstreetmap.org/api/0.6/relation/4291172/full.json",
  "features": [
    {
      "type": "Feature",
      "id": "DZ-TLEMCEN-OSM-REFERENCE",
      "properties": {
        "name": "Tlemcen",
        "refONS": "1301",
        "sourceURL": "https://www.openstreetmap.org/relation/4291172",
        "sourceSHA256": "84d2f0e43a27eb3a15a3092551c95fa429327fb18feb232b27207a3b78959391",
        "attribution": "© OpenStreetMap contributors",
        "license": "ODbL-1.0",
        "licenseURL": "https://opendatacommons.org/licenses/odbl/1-0/",
        "attributionURL": "https://www.openstreetmap.org/copyright",
        "referenceOnly": true,
        "approximate": true,
        "runtimeImportAllowed": false,
        "scopeNote": "Municipal reference, not an exact linguistic boundary."
      },
      "geometry": {
        "type": "Polygon",
        "coordinates": [
          [
            [
              -1.3222745,
              34.8575021
            ],
            [
              -1.3200429,
              34.857731
            ],
            [
              -1.3005378,
              34.8577839
            ],
            [
              -1.2928989,
              34.8649674
            ],
            [
              -1.281183,
              34.8679076
            ],
            [
              -1.2805393,
              34.8657773
            ],
            [
              -1.2793162,
              34.8641223
            ],
            [
              -1.2777927,
              34.8629955
            ],
            [
              -1.275604,
              34.8607419
            ],
            [
              -1.2736299,
              34.8585938
            ],
            [
              -1.2734797,
              34.8592805
            ],
            [
              -1.2731793,
              34.8597031
            ],
            [
              -1.2723877,
              34.8598089
            ],
            [
              -1.2694535,
              34.8614033
            ],
            [
              -1.267651,
              34.8622441
            ],
            [
              -1.2675169,
              34.8624025
            ],
            [
              -1.2672701,
              34.8625214
            ],
            [
              -1.2670931,
              34.862605
            ],
            [
              -1.2668517,
              34.8626622
            ],
            [
              -1.266385,
              34.8627723
            ],
            [
              -1.2661007,
              34.8626754
            ],
            [
              -1.265895,
              34.8626895
            ],
            [
              -1.2657286,
              34.8630665
            ],
            [
              -1.2656021,
              34.8634169
            ],
            [
              -1.2651241,
              34.8643861
            ],
            [
              -1.2646306,
              34.8654776
            ],
            [
              -1.2648023,
              34.8664636
            ],
            [
              -1.2651671,
              34.8677488
            ],
            [
              -1.2651241,
              34.8687523
            ],
            [
              -1.2651885,
              34.8695093
            ],
            [
              -1.2643517,
              34.8702487
            ],
            [
              -1.263944,
              34.8710937
            ],
            [
              -1.2641371,
              34.8725373
            ],
            [
              -1.2639225,
              34.8732591
            ],
            [
              -1.2633217,
              34.8747731
            ],
            [
              -1.2635148,
              34.8755828
            ],
            [
              -1.2637079,
              34.8767095
            ],
            [
              -1.2627638,
              34.8792091
            ],
            [
              -1.2628925,
              34.8798076
            ],
            [
              -1.2642873,
              34.8803533
            ],
            [
              -1.2644804,
              34.8810926
            ],
            [
              -1.2636436,
              34.8834866
            ],
            [
              -1.2628711,
              34.8849475
            ],
            [
              -1.2619269,
              34.885986
            ],
            [
              -1.2612832,
              34.8866901
            ],
            [
              -1.261133,
              34.8876405
            ],
            [
              -1.2617124,
              34.8891542
            ],
            [
              -1.2616265,
              34.8895062
            ],
            [
              -1.260146,
              34.8908087
            ],
            [
              -1.259867,
              34.8914951
            ],
            [
              -1.2598885,
              34.8921991
            ],
            [
              -1.2595881,
              34.8926391
            ],
            [
              -1.2594593,
              34.8932903
            ],
            [
              -1.2601245,
              34.8941879
            ],
            [
              -1.2612403,
              34.8949799
            ],
            [
              -1.2616578,
              34.895565
            ],
            [
              -1.2617221,
              34.8960049
            ],
            [
              -1.2634602,
              34.8953714
            ],
            [
              -1.2643185,
              34.8953186
            ],
            [
              -1.2661112,
              34.8952439
            ],
            [
              -1.2687934,
              34.8939063
            ],
            [
              -1.2699307,
              34.8936951
            ],
            [
              -1.2779129,
              34.8941703
            ],
            [
              -1.283685,
              34.8936247
            ],
            [
              -1.28366,
              34.894797
            ],
            [
              -1.2841535,
              34.8970497
            ],
            [
              -1.2843896,
              34.8978241
            ],
            [
              -1.2934916,
              34.9018288
            ],
            [
              -1.2950101,
              34.9025034
            ],
            [
              -1.2962201,
              34.9030158
            ],
            [
              -1.3074761,
              34.9074096
            ],
            [
              -1.3074521,
              34.9085711
            ],
            [
              -1.3075722,
              34.9096145
            ],
            [
              -1.3088065,
              34.9128926
            ],
            [
              -1.3096207,
              34.9151786
            ],
            [
              -1.3100961,
              34.9170052
            ],
            [
              -1.3101678,
              34.9171494
            ],
            [
              -1.3111122,
              34.9181588
            ],
            [
              -1.3127874,
              34.9185051
            ],
            [
              -1.3145723,
              34.9192441
            ],
            [
              -1.3192555,
              34.921722
            ],
            [
              -1.3207223,
              34.9227508
            ],
            [
              -1.3217946,
              34.9233655
            ],
            [
              -1.322896,
              34.9239969
            ],
            [
              -1.3240743,
              34.9249563
            ],
            [
              -1.3242008,
              34.9253486
            ],
            [
              -1.3243827,
              34.9256468
            ],
            [
              -1.3249126,
              34.9263147
            ],
            [
              -1.3262294,
              34.9279811
            ],
            [
              -1.3264943,
              34.9282826
            ],
            [
              -1.3269847,
              34.928743
            ],
            [
              -1.3274394,
              34.9292941
            ],
            [
              -1.327645,
              34.9296702
            ],
            [
              -1.3277913,
              34.930163
            ],
            [
              -1.3281077,
              34.9309443
            ],
            [
              -1.3282303,
              34.9310869
            ],
            [
              -1.3287087,
              34.9315278
            ],
            [
              -1.3290725,
              34.9319298
            ],
            [
              -1.3293216,
              34.9322734
            ],
            [
              -1.3300492,
              34.9337582
            ],
            [
              -1.3303063,
              34.93405
            ],
            [
              -1.3305435,
              34.9342088
            ],
            [
              -1.3307808,
              34.9343255
            ],
            [
              -1.3311129,
              34.9344325
            ],
            [
              -1.3315005,
              34.9344584
            ],
            [
              -1.3319394,
              34.9344033
            ],
            [
              -1.3320976,
              34.9343579
            ],
            [
              -1.3324218,
              34.9341926
            ],
            [
              -1.3326709,
              34.9340111
            ],
            [
              -1.3333867,
              34.9332914
            ],
            [
              -1.3336437,
              34.9331163
            ],
            [
              -1.3340431,
              34.932938
            ],
            [
              -1.3345176,
              34.9327986
            ],
            [
              -1.3351621,
              34.93263
            ],
            [
              -1.3353875,
              34.9325458
            ],
            [
              -1.3356287,
              34.9323934
            ],
            [
              -1.3364868,
              34.9316996
            ],
            [
              -1.3370207,
              34.9313236
            ],
            [
              -1.3375229,
              34.9311518
            ],
            [
              -1.3381808,
              34.9310371
            ],
            [
              -1.3390963,
              34.9322558
            ],
            [
              -1.3393538,
              34.9333728
            ],
            [
              -1.3394559,
              34.933502
            ],
            [
              -1.3401048,
              34.9343228
            ],
            [
              -1.3405661,
              34.9344987
            ],
            [
              -1.341521,
              34.9343931
            ],
            [
              -1.3432269,
              34.9342172
            ],
            [
              -1.3441388,
              34.9338654
            ],
            [
              -1.3449435,
              34.9346306
            ],
            [
              -1.3455803,
              34.934872
            ],
            [
              -1.3462202,
              34.9350792
            ],
            [
              -1.3489453,
              34.9352287
            ],
            [
              -1.3489239,
              34.9350704
            ],
            [
              -1.3492887,
              34.9332937
            ],
            [
              -1.3489668,
              34.9315169
            ],
            [
              -1.3486449,
              34.9299072
            ],
            [
              -1.3494918,
              34.9298739
            ],
            [
              -1.3579689,
              34.9253928
            ],
            [
              -1.3592412,
              34.9247236
            ],
            [
              -1.3590252,
              34.924204
            ],
            [
              -1.3574072,
              34.9201413
            ],
            [
              -1.3572487,
              34.9197909
            ],
            [
              -1.3589091,
              34.9191931
            ],
            [
              -1.3583406,
              34.9182848
            ],
            [
              -1.3585542,
              34.918207
            ],
            [
              -1.3579927,
              34.9173056
            ],
            [
              -1.3706815,
              34.9098477
            ],
            [
              -1.3705268,
              34.9031621
            ],
            [
              -1.3704884,
              34.9027208
            ],
            [
              -1.3705528,
              34.9018585
            ],
            [
              -1.3704884,
              34.9010666
            ],
            [
              -1.3699305,
              34.8999403
            ],
            [
              -1.3693297,
              34.8994299
            ],
            [
              -1.3674414,
              34.8985676
            ],
            [
              -1.3667119,
              34.8977933
            ],
            [
              -1.3666475,
              34.8971245
            ],
            [
              -1.3668621,
              34.8964909
            ],
            [
              -1.3650596,
              34.8965789
            ],
            [
              -1.3636434,
              34.8972301
            ],
            [
              -1.3600059,
              34.8991992
            ],
            [
              -1.3595065,
              34.8988684
            ],
            [
              -1.3583542,
              34.8990968
            ],
            [
              -1.3578777,
              34.8988717
            ],
            [
              -1.3574708,
              34.8986794
            ],
            [
              -1.354686,
              34.8987187
            ],
            [
              -1.3532546,
              34.8985649
            ],
            [
              -1.3522231,
              34.8981639
            ],
            [
              -1.3512993,
              34.8975481
            ],
            [
              -1.350941,
              34.897687
            ],
            [
              -1.3504705,
              34.8977106
            ],
            [
              -1.3488796,
              34.8971886
            ],
            [
              -1.3487933,
              34.8971541
            ],
            [
              -1.3487464,
              34.897131
            ],
            [
              -1.3475856,
              34.8966762
            ],
            [
              -1.3469079,
              34.8963954
            ],
            [
              -1.3466967,
              34.8958362
            ],
            [
              -1.3452563,
              34.8952612
            ],
            [
              -1.34396,
              34.895151
            ],
            [
              -1.3429263,
              34.8947927
            ],
            [
              -1.3416108,
              34.894328
            ],
            [
              -1.3395558,
              34.8932489
            ],
            [
              -1.3393393,
              34.8930485
            ],
            [
              -1.3392581,
              34.8929733
            ],
            [
              -1.3388932,
              34.8923195
            ],
            [
              -1.3385859,
              34.8918312
            ],
            [
              -1.3379138,
              34.8911853
            ],
            [
              -1.3375661,
              34.8907805
            ],
            [
              -1.3370913,
              34.8908668
            ],
            [
              -1.3369237,
              34.8897248
            ],
            [
              -1.336885,
              34.8895151
            ],
            [
              -1.3368313,
              34.888907
            ],
            [
              -1.3367659,
              34.8889111
            ],
            [
              -1.3365699,
              34.8889223
            ],
            [
              -1.3346375,
              34.8890357
            ],
            [
              -1.3345903,
              34.8886762
            ],
            [
              -1.3340338,
              34.8874354
            ],
            [
              -1.3333269,
              34.8876345
            ],
            [
              -1.333069,
              34.8876698
            ],
            [
              -1.3323299,
              34.8877227
            ],
            [
              -1.3322203,
              34.8876715
            ],
            [
              -1.3321322,
              34.887564
            ],
            [
              -1.3319475,
              34.8871058
            ],
            [
              -1.331782,
              34.886889
            ],
            [
              -1.3315607,
              34.8866951
            ],
            [
              -1.3313824,
              34.8865665
            ],
            [
              -1.3314253,
              34.8861452
            ],
            [
              -1.3314017,
              34.886013
            ],
            [
              -1.3313286,
              34.8857857
            ],
            [
              -1.331131,
              34.885442
            ],
            [
              -1.3310665,
              34.8852763
            ],
            [
              -1.3310515,
              34.8851547
            ],
            [
              -1.3310944,
              34.8849961
            ],
            [
              -1.3311589,
              34.8848956
            ],
            [
              -1.3318808,
              34.8841148
            ],
            [
              -1.3319346,
              34.8838328
            ],
            [
              -1.3318808,
              34.8835384
            ],
            [
              -1.3315349,
              34.8827153
            ],
            [
              -1.3312792,
              34.8821143
            ],
            [
              -1.3309999,
              34.8816119
            ],
            [
              -1.3302887,
              34.88075
            ],
            [
              -1.3301834,
              34.8804275
            ],
            [
              -1.3301383,
              34.8800943
            ],
            [
              -1.3301662,
              34.8796466
            ],
            [
              -1.3301426,
              34.8794034
            ],
            [
              -1.3300932,
              34.8791954
            ],
            [
              -1.3300395,
              34.8790491
            ],
            [
              -1.3299428,
              34.878901
            ],
            [
              -1.3297958,
              34.8787019
            ],
            [
              -1.32944,
              34.8784145
            ],
            [
              -1.3292703,
              34.8782189
            ],
            [
              -1.3291693,
              34.8780071
            ],
            [
              -1.3290962,
              34.8777604
            ],
            [
              -1.3290776,
              34.8776225
            ],
            [
              -1.3291091,
              34.8774149
            ],
            [
              -1.3291972,
              34.8771558
            ],
            [
              -1.3293111,
              34.8769143
            ],
            [
              -1.329498,
              34.876664
            ],
            [
              -1.3296097,
              34.8764683
            ],
            [
              -1.329642,
              34.8763079
            ],
            [
              -1.3296463,
              34.8761722
            ],
            [
              -1.3295689,
              34.875728
            ],
            [
              -1.329556,
              34.8755869
            ],
            [
              -1.3295732,
              34.8752644
            ],
            [
              -1.3295797,
              34.875081
            ],
            [
              -1.3293988,
              34.8745159
            ],
            [
              -1.3293708,
              34.8743061
            ],
            [
              -1.3293902,
              34.8741475
            ],
            [
              -1.3294546,
              34.8739888
            ],
            [
              -1.3295922,
              34.8738073
            ],
            [
              -1.329794,
              34.8735821
            ],
            [
              -1.3299568,
              34.8734456
            ],
            [
              -1.3302223,
              34.8732859
            ],
            [
              -1.330191,
              34.873189
            ],
            [
              -1.3301635,
              34.8731041
            ],
            [
              -1.3300705,
              34.8728162
            ],
            [
              -1.3297551,
              34.8718399
            ],
            [
              -1.3294932,
              34.871053
            ],
            [
              -1.3291994,
              34.8703067
            ],
            [
              -1.3290366,
              34.8696505
            ],
            [
              -1.3290508,
              34.8694937
            ],
            [
              -1.3291994,
              34.8691597
            ],
            [
              -1.3293092,
              34.8687881
            ],
            [
              -1.3292809,
              34.8686545
            ],
            [
              -1.3289552,
              34.8680969
            ],
            [
              -1.3287889,
              34.8678995
            ],
            [
              -1.3286203,
              34.8681122
            ],
            [
              -1.3284132,
              34.8684447
            ],
            [
              -1.3282911,
              34.8685898
            ],
            [
              -1.3278204,
              34.8688425
            ],
            [
              -1.3272948,
              34.8691662
            ],
            [
              -1.3264454,
              34.8695365
            ],
            [
              -1.32638,
              34.8694711
            ],
            [
              -1.3261021,
              34.8692214
            ],
            [
              -1.3258721,
              34.8690646
            ],
            [
              -1.3255943,
              34.8689412
            ],
            [
              -1.3252952,
              34.8687365
            ],
            [
              -1.325074,
              34.8686784
            ],
            [
              -1.3248475,
              34.8685332
            ],
            [
              -1.3246511,
              34.8684461
            ],
            [
              -1.3244764,
              34.868376
            ],
            [
              -1.3243584,
              34.8681736
            ],
            [
              -1.324235,
              34.8680239
            ],
            [
              -1.3240794,
              34.8675134
            ],
            [
              -1.3254803,
              34.8675328
            ],
            [
              -1.3259221,
              34.8672573
            ],
            [
              -1.326333,
              34.865771
            ],
            [
              -1.3248612,
              34.8641636
            ],
            [
              -1.3244846,
              34.863242
            ],
            [
              -1.3239721,
              34.8622286
            ],
            [
              -1.324146,
              34.8614846
            ],
            [
              -1.3222745,
              34.8575021
            ]
          ]
        ]
      }
    }
  ]
}
